METHANESAT              
1 59101U 24043D   25248.27009513  .00003912  00000+0  35561-3 0  9994
2 59101  97.8091  14.0045 0010005 239.5746 120.4486 14.95788280 82027
GOSAT-GW (IBUKI GW)     
1 64694U 25141A   25248.32921314  .00001437  00000+0  26160-3 0  9990
2 64694  98.0268 185.7079 0001394  80.0958 280.0404 14.67565604 10067
GHGSAT-C1               
1 46278U 20061G   25248.30805602  .00023729  00000+0  37868-3 0  9998
2 46278  97.2443 322.6663 0002348  49.5879 310.5579 15.53207265279010
GHGSAT-C12              
1 64529U 25135B   25248.28061961  .00005549  00000+0  28024-3 0  9997
2 64529  97.4536   1.5816 0006563  88.1785 272.0201 15.17474589 11579
GHGSAT-C13              
1 64548U 25135W   25248.29566060  .00004630  00000+0  22852-3 0  9992
2 64548  97.4557   1.7351 0002279  60.9265 299.2197 15.18381828 11580
GHGSAT-C2               
1 47509U 21006DA  25248.08125821  .00009145  00000+0  28645-3 0  9998
2 47509  97.2615 295.3007 0007448 110.1643 250.0402 15.33284426256095
GHGSAT-C3               
1 52737U 22057F   25248.33895909  .00008970  00000+0  31753-3 0  9992
2 52737  97.6225  20.0648 0007559  57.0318 303.1648 15.29354007181929
GHGSAT-C4               
1 52746U 22057Q   25248.35742582  .00008836  00000+0  31294-3 0  9993
2 52746  97.6153  19.1989 0007564  43.9446 316.2394 15.29343563181937
GHGSAT-C5               
1 52744U 22057N   25248.30861461  .00009419  00000+0  33341-3 0  9997
2 52744  97.6312  21.2765 0008515  52.9882 307.2135 15.29333827181923
GHGSAT-C6               
1 56204U 23054AC  25248.30361306  .00015192  00000+0  34168-3 0  9996
2 56204  97.3213 149.7745 0008795  15.4992 344.6524 15.43374456134378
GHGSAT-C7               
1 56209U 23054AH  25248.27446810  .00013016  00000+0  30268-3 0  9991
2 56209  97.3174 149.2163 0008749   7.6039 352.5340 15.42410716134364
GHGSAT-C8               
1 56186U 23054J   25248.27790623  .00015313  00000+0  34436-3 0  9992
2 56186  97.3181 149.2173 0007178  39.8749 320.3026 15.43389441134351
SENTINEL-5P             
1 42969U 17064A   25247.80514532  .00000156  00000+0  95011-4 0  9997
2 42969  98.7611 187.3501 0001069  73.9519 286.1774 14.19543782409078
ENMAP                   
1 52159U 22033C   25248.24113686  .00000960  00000+0  15027-3 0  9996
2 52159  97.9779 329.5785 0001262  91.2889 268.8464 14.74969844184657
PRISMA                  
1 44072U 19015A   25248.26653557  .00001649  00000+0  20609-3 0  9992
2 44072  97.8697 322.1321 0001369  92.5887 267.5484 14.83677282349805
SENTINEL-2A             
1 40697U 15028A   25248.24962748  .00000242  00000+0  10903-3 0  9998
2 40697  98.5638 322.1788 0001125  97.0451 263.0860 14.30822365532989
SENTINEL-2B             
1 42063U 17013A   25247.68302360  .00000269  00000+0  11911-3 0  9997
2 42063  98.5641 321.5641 0001208  92.8121 267.3200 14.30825532443819
SENTINEL-2C             
1 60989U 24157A   25248.13778110  .00000221  00000+0  10107-3 0  9996
2 60989  98.5631 322.0816 0001187  90.6306 269.5013 14.30824483 52223
LANDSAT 8               
1 39084U 13008A   25248.25284262  .00000684  00000+0  16198-3 0  9993
2 39084  98.2193 317.7153 0001191  93.7100 266.4235 14.57108777656403
LANDSAT 9               
1 49260U 21088A   25248.21856086  .00000718  00000+0  16949-3 0  9994
2 49260  98.2211 317.6928 0001207  97.2014 262.9321 14.57103964209506
